[{"OBJECT_NAME":"STARLINK-30355","OBJECT_ID":"2023-134G","EPOCH":"2026-03-09T22:00:01.999584","MEAN_MOTION":15.15158343,"ECCENTRICITY":0.00012731,"INCLINATION":42.9989,"RA_OF_ASC_NODE":195.8207,"ARG_OF_PERICENTER":271.7822,"MEAN_ANOMALY":333.1192,"EPHEMERIS_TYPE":0,"CLASSIFICATION_TYPE":"U","NORAD_CAT_ID":57777,"ELEMENT_SET_NO":999,"REV_AT_EPOCH":578,"BSTAR":0.004135665,"MEAN_MOTION_DOT":0.00079625,"MEAN_MOTION_DDOT":0},{"OBJECT_NAME":"KOYOH","OBJECT_ID":"2023-185C","EPOCH":"2026-03-09T23:57:30.987648","MEAN_MOTION":15.16984541,"ECCENTRICITY":0.00055962,"INCLINATION":97.5396,"RA_OF_ASC_NODE":141.7167,"ARG_OF_PERICENTER":294.7057,"MEAN_ANOMALY":65.3594,"EPHEMERIS_TYPE":0,"CLASSIFICATION_TYPE":"U","NORAD_CAT_ID":58464,"ELEMENT_SET_NO":999,"REV_AT_EPOCH":12508,"BSTAR":0.00043532489,"MEAN_MOTION_DOT":8.537e-5,"MEAN_MOTION_DDOT":0}]
